ONEWEB-0045             
1 45151U 20008W   25193.94820011 -.00000021  00000+0 -94821-4 0  9993
2 45151  87.8826  88.6515 0001936  80.0818 280.0529 13.11416098265940
ONEWEB-0047             
1 45152U 20008X   25193.51097363 -.00001529  00000+0 -44170-2 0  9997
2 45152  87.8820 104.0147 0001911  87.4695 272.6651 13.10383459263715
ONEWEB-0048             
1 45153U 20008Y   25193.50599388  .00000657  00000+0  18451-2 0  9993
2 45153  87.8825 104.0397 0001883  78.3372 281.7966 13.10373468263323
ONEWEB-0049             
1 45154U 20008Z   25193.73755431  .00000681  00000+0  19145-2 0  9990
2 45154  87.8821 103.9875 0001439  72.4564 287.6720 13.10372543263577
ONEWEB-0051             
1 45155U 20008AA  25193.94650849  .00000008  00000+0 -12787-4 0  9992
2 45155  87.8826  88.6957 0001916  75.4617 284.6724 13.11416064266623
ONEWEB-0052             
1 45156U 20008AB  25193.73256542  .00000559  00000+0  15648-2 0  9999
2 45156  87.8836 103.9314 0001326  76.8749 283.2526 13.10374696263488
ONEWEB-0053             
1 45157U 20008AC  25193.71513130 -.00000276  00000+0 -82626-3 0  9996
2 45157  87.8825 103.9958 0002032  86.5326 273.6034 13.10375222263455
ONEWEB-0054             
1 45158U 20008AD  25193.44457151  .00000423  00000+0  11747-2 0  9994
2 45158  87.8818 104.0239 0001889  75.3747 284.7590 13.10369574263536
